#dP2024  4  1  0  0  0.00000000      96 __u+U IGS20 EXT  IAC
## 2308  86400.00000000   900.00000000 60401 0.0000000000000
+  120   C06C07C08C09C10C11C12C13C14C16C19C20C21C22C23C24C25
+        C26C27C28C29C30C32C33C34C35C36C37C38C39C40C41C42C43
+        C44C45C46E02E03E04E05E07E08E09E10E11E12E13E14E15E18
+        E19E21E24E25E26E27E30E31E33E34E36G01G02G03G04G05G06
+        G07G08G09G10G11G12G13G14G15G16G17G18G19G20G21G22G23
+        G24G25G26G27G28G29G30G31G32J02J03J04R01R02R03R04R05
+        R07R08R09R11R12R13R14R15R16R17R18R19R20R21R22R24R25
+        R26  0  0  0  0  0  0  0  0  0  0  0  0  0  0  0  0
++        11  9  9 11  8  9  9 10  9 10  8  9 10  8  9 10  8
++         8  8 10 10  9  8  8  8  8  8  9 11 11  9  7  9  8
++         9  9  9  8  8  8  8  8  7  8  8  9  7  7  8  7  7
++         9  7  8  8  7  8  9  9  8  8  8  8  8  8  7  8  9
++         8  8  7  8 10  8  8  7  7  8  8  8  8  8  8  7  8
++         7  7  8  8  7  8  8  7  8  8 11  0  8  8  9  7  7
++         9  8  8  8  9  8  8  8  8  8  9  9  8  9  9  8  8
++        10  0  0  0  0  0  0  0  0  0  0  0  0  0  0  0  0
%c M  cc GPS ccc cccc cccc cccc cccc ccccc ccccc ccccc ccccc
%c cc cc ccc ccc cccc cccc cccc cccc ccccc ccccc ccccc ccccc
%f  0.0000000  0.000000000  0.00000000000  0.000000000000000
%f  0.0000000  0.000000000  0.00000000000  0.000000000000000
%i    0    0    0    0      0      0      0      0         0
%i    0    0    0    0      0      0      0      0         0
/* IAC                                ULTRA-RAPID PREDICTION
/* S/V CLOCKS ARE ALIGNED TO GNSS TIME                      
/* G:C1WC2W R:C1PC2P E:C1XC5X C:C2IC6I J:C1CC2S             
/* PCV:IGS20_2290 OL/AL:FES2004  NONE     YN ORB:CoN CLK:CoN
*  2024 04 01 23 15  0.00000000
PC06 -13033.346995  24958.787826  31364.369578    315.263011
PC07 -11864.799495  40441.884282   3448.858023   -859.726210
PC08    393.003865  27067.655197 -32257.655620     11.595803
PC09  -5771.696877  24920.712183  33886.508155   -703.520095
PC10  -5882.765328  41897.151595  -3374.370584     19.479927
PC11  25569.407335 -10462.915561  -3859.688500    490.500648
PC12  19701.492814   4025.850564 -19317.829228   -224.356111
PC13   7211.221919  31237.616033 -27067.357800    428.681785
PC14  14896.065533  -8812.260718  21894.338633    544.456892
PC16 -18551.801647  23896.227445  29512.118085   -432.363417
PC19 -11691.781904  18621.482221 -17172.851745   -916.116796
PC20 -15603.646718   -205.218701 -23118.858872   -317.091933
PC21  10350.942022  20780.113852  15529.022602   -961.978563
PC22   -883.922080  27891.410771  -1018.381969    -53.590823
PC23  -1613.218063 -18416.856909 -20904.629471   -775.518318
PC24  25409.917819   7489.058423  -8756.967630    946.587421
PC25  16306.656573  -8326.755402 -21066.813599    364.293782
PC26  19858.274341  17750.476671   8250.200159   -271.241856
PC27 -12614.135512 -10893.007537  22357.983524    293.089114
PC28   4741.670344 -18784.044885  20088.421021    223.865151
PC29 -21790.019612  16894.720565  -4293.758856    262.564979
PC30 -24134.296136   3637.048017  13496.427030    -48.230287
PC32 -10464.827499 -20739.031378 -15428.564410   -593.822879
PC33  11665.113107 -18551.029437  17272.715559   -965.456178
PC34  24621.858438  -4905.165605 -12226.538560    403.097986
PC35  -4169.834309  19056.630377 -19956.008691    397.052554
PC36 -16743.111019   7726.323969  20965.970070     37.961631
PC37 -19256.227401 -18314.309757  -8550.436929   -952.065192
PC38  -7332.355740  23711.242778 -34011.689200    146.422402
PC39 -23493.129344  23895.721664  25522.547362     -7.802147
PC40 -18016.021189  37832.450983   5876.059855    -63.505038
PC41   1371.969959 -27797.696107   1943.441082   -916.577605
PC42  15636.632124   2205.640645  23058.060160   -444.387974
PC43  22305.092999 -16451.525383   3355.446829     66.409912
PC44  12990.708555  10633.423266 -22313.909371    431.150850
PC45   1640.046323  18325.783487  20969.503142    -78.400969
PC46 -25305.909632  -7019.071358   9486.309844   -136.515063
PE02 -14196.715926   9155.823303  24295.242276    116.049354
PE03 -20929.499844  18265.804474 -10237.737083   -104.358920
PE04  10479.254967 -26310.832070  -8589.282279   -363.647020
PE05 -18941.141254   -333.129501 -22734.928408   4734.632831
PE07   5549.840389  19156.955013  21887.151326   -112.217170
PE08 -11080.008588  26285.393625   7936.729268   -248.332958
PE09  -5360.803955 -19143.254189 -21917.813682   -391.950893
PE10  -4886.911271 -16027.612536  24393.258371   -613.889730
PE11 -16416.378111 -14201.600587  20102.788330   3099.510639
PE12   6194.934328 -15415.902683  24496.205627   -975.155569
PE13  15830.060054  14315.116522 -20514.915633    -20.808612
PE14  -8547.043113 -14162.871276  17957.995279     83.325548
PE15  -6771.352583  15243.776848 -24446.512717    -94.647790
PE18   4870.478735  23283.920372 -21014.819305    503.102971
PE19  21369.153446 -16522.618086  12119.112055   -321.520867
PE21  19877.857053  11213.000010 -18855.381873   -587.045836
PE24 -13884.396846 -26092.727098   1787.087576   -684.139855
PE25 -19879.386684 -11631.806351  18593.638276      2.840265
PE26  28946.670790   4702.621348  -4050.980157    413.654672
PE27  14164.913931  25896.242532  -2150.504175   -313.741129
PE30    -68.003471  25068.027193  15714.449021   -155.597841
PE31   -171.867114 -25143.080894 -15622.936659    -19.749564
PE33  25396.661183  -6913.574214  13547.776733      9.844373
PE34 -25051.332251   7272.635011 -13994.043617   -103.304948
PE36 -28780.309766  -5047.306051   4677.233551   -207.505548
PG01  19238.138362  11198.984086 -15096.019028    177.328325
PG02   9825.959282  13547.369068 -20207.152216   -460.471355
PG03  12314.983014  23607.763653    189.211835    286.890707
PG04   4002.898200  17778.390273  19294.072864    328.990973
PG05  -3437.422100 -23008.916570  12554.396512   -167.592406
PG06  23413.593658  -5996.212395  11205.465632    341.462170
PG07  25086.994910   6442.372543   7410.198206    -97.838128
PG08  -2740.223997  22793.346377 -13080.056293     95.440038
PG09  14375.179368   5535.765632  21562.273761    145.410210
PG10 -15420.479731   1273.335502 -21427.747992     -4.526825
PG11  13180.409621 -12303.394981  19509.512714   -624.446967
PG12  -9953.662660 -24649.598921   -998.438708   -492.715039
PG13  12385.891518 -22218.790910  -7418.807389    639.214468
PG14  17331.508496   2696.363518 -19972.559194    365.688737
PG15   -334.642496 -23233.271932 -13173.375861    143.944350
PG16  -3083.215138  20861.872337  15530.264627   -327.026232
PG17  19312.215063  -7564.711293 -16261.052583    711.278017
PG18 -25397.058831  -5602.701144   5873.997381   -586.868927
PG19  19963.174759 -14461.269119  -9564.662507    462.294349
PG20   5436.948728 -16492.122805  20201.264065    381.736118
PG21   4598.625735  14653.490192 -21296.882609    128.968787
PG22  13731.956849  -6043.917860 -21496.964613      6.845024
PG23 -18332.727299 -11129.752610 -15769.716730    190.903059
PG24  -7623.883948 -15120.643798 -20952.090073   -454.218382
PG25 -16642.879411 -19279.572072   7654.836398    492.789896
PG26 -11110.356948  11617.863337  20952.234254    172.172721
PG27 -12224.037954  23170.301882  -2868.539818    -15.948645
PG28 -24551.734920   5586.900376   8428.469649   -186.843330
PG29 -12216.542655  -8619.866157  21899.147788   -603.160111
PG30  26420.417697  -1352.777672  -3520.971283   -411.338120
PG31 -18205.457787  10375.711950  16338.734138   -228.024650
PG32 -18945.486737  10927.155978 -14716.473248   -617.403933
PJ02 -26384.581288  24288.593457  27233.399188     -3.565735
PJ03 -34423.845632  17660.364565 -12111.242413     -0.123375
PJ04      0.000000      0.000000      0.000000     50.533837
PR01 -10947.052479  14494.546272 -17909.294039     81.303695
PR02  -6124.702952  24587.363483  -2581.143574    -22.658951
PR03   2834.148623  20994.427612  14219.691517     97.465577
PR04   9595.768159   6087.219066  22871.797187    230.177524
PR05  11549.860518 -12096.204304  19286.007381    129.300901
PR07  -3154.301907 -20546.931272 -14769.589512     79.289773
PR08  -9776.229058  -5812.367027 -22768.226104    -74.936805
PR09   -447.132612 -13930.230541 -21328.807066    178.669587
PR11 -20722.887804 -13474.298658   6271.014762     29.308985
PR12 -14578.034839    793.013708  20941.045072     38.491753
PR13  -1800.977440  12373.864477  22215.091445    -45.863776
PR14  14747.231899  18446.990021   9672.349471     26.302072
PR15  20706.813894  12742.979981  -7710.396739     80.855567
PR16  14676.943920   -514.025009 -20860.198443     24.469408
PR17   6446.801886   8905.723658 -23009.572715     74.257705
PR18  20501.568720    455.002701 -15197.300312    135.058016
PR19  24581.751991  -6696.637977  -1296.802167   -271.562845
PR20  13390.395462 -12279.001773  17933.172227   -110.654754
PR21  -6454.050048  -8840.395190  23038.025395    -89.338002
PR22 -21142.503634   -687.875657  14265.327578    115.186606
PR24 -12191.688832  13178.532288 -18110.726078    -50.124952
PR25  -6429.665978  -9363.343125  22843.893908    -26.453275
PR26  -9522.740479  -6880.214511 -22612.299307    -27.159139
EOF
